EUTELSAT 7A             
1 28187U 04008A   25292.95323529  .00000107  00000+0  00000+0 0  9992
2 28187   5.2178  74.8607 0001603 187.1728 330.6172  1.00273799 78945
EUTELSAT 174A           
1 28924U 05052A   25292.80122125  .00000014  00000+0  00000+0 0  9991
2 28924   3.6080  79.4919 0006307 132.7405 278.8038  1.00275005 49921
EUTELSAT HOTBIRD 13B    
1 29270U 06032A   25292.91605510  .00000157  00000+0  00000+0 0  9999
2 29270   1.0373  84.8306 0004011 117.2054 189.4772  1.00271380 44896
EUTELSAT HOTBIRD 13C    
1 33459U 08065A   25292.90704174 -.00000097  00000+0  00000+0 0  9990
2 33459   2.3295  82.0171 0005855 147.9427 112.7259  1.00272226 44932
EUTELSAT 36B            
1 36101U 09065A   25292.91952179  .00000112  00000+0  00000+0 0  9996
2 36101   0.0606  38.1745 0006067 175.9850 196.0167  1.00274085 58298
EUTELSAT KA-SAT 9A      
1 37258U 10069A   25292.91128843  .00000062  00000+0  00000+0 0  9993
2 37258   0.0605 317.5319 0002520 218.2575 189.9382  1.00269695 41593
EUTELSAT 7 WEST A       
1 37816U 11051A   25292.92405956 -.00000059  00000+0  00000+0 0  9996
2 37816   0.0854  40.8079 0006358 164.2479 148.9621  1.00272116 51475
EUTELSAT 16A            
1 37836U 11057A   25292.91267509  .00000105  00000+0  00000+0 0  9994
2 37836   0.0677  17.7169 0005525 194.5238 160.9787  1.00273478  4913
